NORAD_CAT_ID,OBJECT_NAME,OBJECT_TYPE,EPOCH,MEAN_MOTION,ECCENTRICITY,INCLINATION,RA_OF_ASC_NODE,ARG_OF_PERICENTER,MEAN_ANOMALY,BSTAR,MEAN_MOTION_DOT,MEAN_MOTION_DDOT,TLE_LINE0,TLE_LINE1,TLE_LINE2,SEMIMAJOR_AXIS,PERIOD,APOGEE,PERIGEE,DECAYED
50199.0,STARLINK-3270,PAYLOAD,2022-03-15 02:00:01,15.51883924,0.0001621,53.2173,298.1237,45.8333,170.5478,-0.012637,-0.00705187,0.0,0 STARLINK-3270,1 50199U 21125AV  22074.08334491 -.00705187  00000-0 -12637-1 0  9992,2 50199  53.2173 298.1237 0001621  45.8333 170.5478 15.51883924  3679,6789.363,92.79,412.328,410.127,0.0
50199.0,STARLINK-3270,PAYLOAD,2022-03-15 22:00:00,15.5061279,0.0001696999999999,53.2173,294.1257,45.7842,146.9738,-0.013362,-0.00720841,0.0,0 STARLINK-3270,1 50199U 21125AV  22074.91667824 -.00720841  00000-0 -13362-1 0  9993,2 50199  53.2173 294.1257 0001697  45.7842 146.9738 15.50612790 16573,6793.073,92.867,416.091,413.785,0.0
50199.0,STARLINK-3270,PAYLOAD,2022-03-16 14:00:01,15.49579781,0.0001477,53.2176,290.9319,48.0024,267.1039,-0.013256,-0.00683035,0.0,0 STARLINK-3270,1 50199U 21125AV  22075.58334491 -.00683035  00000-0 -13256-1 0  9993,2 50199  53.2176 290.9319 0001477  48.0024 267.1039 15.49579781  3681,6796.090999999999,92.928,418.96,416.953,0.0
50199.0,STARLINK-3270,PAYLOAD,2022-03-16 20:00:01,15.49093629,0.0001603,53.2175,289.7381,46.8672,223.498,-0.0047959,-0.00256659,0.0,0 STARLINK-3270,1 50199U 21125AV  22075.83334491 -.00256659  00000-0 -47959-2 0  9997,2 50199  53.2175 289.7381 0001603  46.8672 223.4980 15.49093629 16711,6797.513000000001,92.958,420.468,418.289,0.0
50199.0,STARLINK-3270,PAYLOAD,2022-03-17 06:00:00,15.48884115,0.0001375999999999,53.2174,287.7459,49.5275,25.6314,-0.014244,-0.00722452,0.0,0 STARLINK-3270,1 50199U 21125AV  22076.25001157 -.00722452  00000-0 -14244-1 0  9993,2 50199  53.2174 287.7459 0001376  49.5275  25.6314 15.48884115 16776,6798.126,92.97,420.927,419.056,0.0
50199.0,STARLINK-3270,PAYLOAD,2022-03-17 14:00:01,15.48372871,0.0001688,53.2176,286.1523,40.3157,94.244,-0.0144419999999999,-0.00719684,0.0,0 STARLINK-3270,1 50199U 21125AV  22076.58334491 -.00719684  00000-0 -14442-1 0  9992,2 50199  53.2176 286.1523 0001688  40.3157  94.2440 15.48372871  3697,6799.623000000001,93.001,422.635,420.34,0.0
50199.0,STARLINK-3270,PAYLOAD,2022-03-17 22:00:00,15.47862801,0.0001821,53.2175,284.5626,40.9657,152.3803,-0.014711,-0.00720067,0.0,0 STARLINK-3270,1 50199U 21125AV  22076.91667824 -.00720067  00000-0 -14711-1 0  9994,2 50199  53.2175 284.5626 0001821  40.9657 152.3803 15.47862801  3697,6801.116,93.032,424.22,421.74300000000005,0.0
50199.0,STARLINK-3270,PAYLOAD,2022-03-18 08:00:01,15.47226177,0.0001474,53.2174,282.5735,39.981,315.9879,-0.015082,-0.00721776,0.0,0 STARLINK-3270,1 50199U 21125AV  22077.33334491 -.00721776  00000-0 -15082-1 0  9992,2 50199  53.2174 282.5735 0001474  39.9810 315.9879 15.47226177 16940,6802.982,93.07,425.849,423.844,0.0
50199.0,STARLINK-3270,PAYLOAD,2022-03-18 14:00:01,15.46843127,0.0001499,53.2176,281.3814,46.3016,262.7812,-0.015233,-0.00719519,0.0,0 STARLINK-3270,1 50199U 21125AV  22077.58334491 -.00719519  00000-0 -15233-1 0  9999,2 50199  53.2176 281.3814 0001499  46.3016 262.7812 15.46843127  3697,6804.105,93.093,426.99,424.95,0.0
50199.0,STARLINK-3270,PAYLOAD,2022-03-18 22:00:00,15.46334713,0.0001585999999999,53.2174,279.7955,39.1046,326.9256,-0.015594,-0.00723384,0.0,0 STARLINK-3270,1 50199U 21125AV  22077.91667824 -.00723384  00000-0 -15594-1 0  9990,2 50199  53.2174 279.7955 0001586  39.1046 326.9256 15.46334713  3750,6805.596,93.123,428.54,426.382,0.0
50199.0,STARLINK-3270,PAYLOAD,2022-03-19 14:00:01,15.45312442,0.0001587,53.2174,276.6215,44.8961,73.1951,-0.016041,-0.00718671,0.0,0 STARLINK-3270,1 50199U 21125AV  22078.58334491 -.00718671  00000-0 -16041-1 0  9996,2 50199  53.2174 276.6215 0001587  44.8961  73.1951 15.45312442 17140,6808.597,93.185,431.543,429.382,0.0
50199.0,STARLINK-3270,PAYLOAD,2022-03-19 22:00:01,15.44802059,0.0001826,53.2173,275.0392,39.5719,133.6932,-0.016313,-0.00718228,0.0,0 STARLINK-3270,1 50199U 21125AV  22078.91668981 -.00718228  00000-0 -16313-1 0  9997,2 50199  53.2173 275.0392 0001826  39.5719 133.6932 15.44802059  3701,6810.097,93.216,433.205,430.718,0.0
50199.0,STARLINK-3270,PAYLOAD,2022-03-20 14:00:01,15.43783626,0.0001611,53.2175,271.8725,45.4606,236.123,-0.016933,-0.00719856,0.0,0 STARLINK-3270,1 50199U 21125AV  22079.58334491 -.00719856  00000-0 -16933-1 0  9993,2 50199  53.2175 271.8725 0001611  45.4606 236.1230 15.43783626 17296,6813.090999999999,93.277,436.054,433.859,0.0
50199.0,STARLINK-3270,PAYLOAD,2022-03-20 22:00:01,15.43273478,0.0001459,53.2175,270.2939,47.1989,287.7203,-0.017247,-0.00720521,0.0,0 STARLINK-3270,1 50199U 21125AV  22079.91668981 -.00720521  00000-0 -17247-1 0  9994,2 50199  53.2175 270.2939 0001459  47.1989 287.7203 15.43273478  3699,6814.593000000003,93.308,437.452,435.464,0.0
50199.0,STARLINK-3270,PAYLOAD,2022-03-21 14:00:01,15.42253298,0.0001705,53.2176,267.1347,36.4483,43.1135,-0.01783,-0.00719722,0.0,0 STARLINK-3270,1 50199U 21125AV  22080.58334491 -.00719722  00000-0 -17830-1 0  9994,2 50199  53.2176 267.1347 0001705  36.4483  43.1135 15.42253298 17445,6817.598000000001,93.37,440.625,438.3,0.0
50199.0,STARLINK-3270,PAYLOAD,2022-03-21 22:00:00,15.41740741,0.0001848,53.2175,265.5596,35.9663,95.0292,-0.018034,-0.00715846,0.0,0 STARLINK-3270,1 50199U 21125AV  22080.91667824 -.00715846  00000-0 -18034-1 0  9990,2 50199  53.2175 265.5596 0001848  35.9663  95.0292 15.41740741  3688,6819.109,93.401,442.234,439.713,0.0
50199.0,STARLINK-3270,PAYLOAD,2022-03-22 14:00:01,15.40722682,0.0001837,53.2176,262.4077,39.4145,192.6102,-0.018722,-0.00718084,0.0,0 STARLINK-3270,1 50199U 21125AV  22081.58334491 -.00718084  00000-0 -18722-1 0  9996,2 50199  53.2176 262.4077 0001837  39.4145 192.6102 15.40722682 17605,6822.111999999999,93.463,445.23,442.724,0.0
50199.0,STARLINK-3270,PAYLOAD,2022-03-22 22:00:01,15.40211194,0.0001592,53.2175,260.8359,46.9467,234.7371,-0.018977,-0.00715725,0.0,0 STARLINK-3270,1 50199U 21125AV  22081.91668981 -.00715725  00000-0 -18977-1 0  9998,2 50199  53.2175 260.8359 0001592  46.9467 234.7371 15.40211194  3687,6823.621999999999,93.494,446.574,444.401,0.0
50199.0,STARLINK-3270,PAYLOAD,2022-03-23 14:00:01,15.39194811,0.000166,53.2176,257.6916,36.563,342.4087,-0.019803,-0.00721685,0.0,0 STARLINK-3270,1 50199U 21125AV  22082.58334491 -.00721685  00000-0 -19803-1 0  9999,2 50199  53.2176 257.6916 0001660  36.5630 342.4087 15.39194811 17752,6826.626,93.555,449.624,447.358,0.0
50199.0,STARLINK-3270,PAYLOAD,2022-03-23 22:00:00,15.38680435,0.0001604,53.2174,256.1235,39.0921,27.6373,-0.019931,-0.00714695,0.0,0 STARLINK-3270,1 50199U 21125AV  22082.91667824 -.00714695  00000-0 -19931-1 0  9990,2 50199  53.2174 256.1235 0001604  39.0921  27.6373 15.38680435  3696,6828.147,93.587,451.108,448.917,0.0
50199.0,STARLINK-3270,PAYLOAD,2022-03-24 14:00:01,15.37662805,0.0001877,53.2175,252.9864,37.5557,122.8493,-0.020715,-0.00718199,0.0,0 STARLINK-3270,1 50199U 21125AV  22083.58334491 -.00718199  00000-0 -20715-1 0  9990,2 50199  53.2175 252.9864 0001877  37.5557 122.8493 15.37662805  3667,6831.16,93.649,454.307,451.742,0.0
50199.0,STARLINK-3270,PAYLOAD,2022-03-24 22:00:00,15.37148569,0.0001629999999999,53.2173,251.4218,49.0852,157.2389,-0.020829,-0.00710701,0.0,0 STARLINK-3270,1 50199U 21125AV  22083.91667824 -.00710701  00000-0 -20829-1 0  9993,2 50199  53.2173 251.4218 0001630  49.0852 157.2389 15.37148569  3689,6832.683000000001,93.68,455.662,453.434,0.0
50199.0,STARLINK-3270,PAYLOAD,2022-03-25 00:00:02,15.37026956,0.0001449,53.2171,251.03,49.7683,258.0018,-0.021215,-0.00720213,0.0,0 STARLINK-3270,1 50199U 21125AV  22084.00002315 -.00720213  00000-0 -21215-1 0  9991,2 50199  53.2171 251.0300 0001449  49.7683 258.0018 15.37026956 17973,6833.043000000002,93.687,455.899,453.918,0.0
50199.0,STARLINK-3270,PAYLOAD,2022-03-25 14:00:01,15.36133171,0.0001675,53.2175,248.292,42.1662,254.156,-0.021772,-0.00718198,0.0,0 STARLINK-3270,1 50199U 21125AV  22084.58334491 -.00718198  00000-0 -21772-1 0  9994,2 50199  53.2175 248.2920 0001675  42.1662 254.1560 15.36133171  3665,6835.694,93.742,458.704,456.414,0.0
50199.0,STARLINK-3270,PAYLOAD,2022-03-25 22:00:01,15.35621611,0.0001691,53.2173,246.731,36.5708,303.8952,-0.022034,-0.00715179,0.0,0 STARLINK-3270,1 50199U 21125AV  22084.91668981 -.00715179  00000-0 -22034-1 0  9993,2 50199  53.2173 246.7310 0001691  36.5708 303.8952 15.35621611  3718,6837.212,93.773,460.233,457.921,0.0
50199.0,STARLINK-3270,PAYLOAD,2022-03-26 06:00:00,15.35111677,0.0001636,53.2174,245.1679,35.0126,348.8584,-0.022427,-0.00716011,0.0,0 STARLINK-3270,1 50199U 21125AV  22085.25001157 -.00716011  00000-0 -22427-1 0  9999,2 50199  53.2174 245.1679 0001636  35.0126 348.8584 15.35111677 18168,6838.726,93.804,461.71,459.472,0.0
50199.0,STARLINK-3270,PAYLOAD,2022-03-26 14:00:01,15.34604092,0.0001872,53.2175,243.6088,31.5431,35.1811,-0.022929,-0.00719932,0.0,0 STARLINK-3270,1 50199U 21125AV  22085.58334491 -.00719932  00000-0 -22929-1 0  9997,2 50199  53.2175 243.6088 0001872  31.5431  35.1811 15.34604092  3652,6840.234,93.835,463.379,460.818,0.0
50199.0,STARLINK-3270,PAYLOAD,2022-03-26 22:00:00,15.34090771,0.0001861,53.2172,242.0511,33.3026,75.664,-0.023093,-0.00713775,0.0,0 STARLINK-3270,1 50199U 21125AV  22085.91667824 -.00713775  00000-0 -23093-1 0  9995,2 50199  53.2172 242.0511 0001861  33.3026  75.6640 15.34090771  3675,6841.759,93.867,464.898,462.351,0.0
50199.0,STARLINK-3270,PAYLOAD,2022-03-27 06:00:00,15.33581513,0.0001848,53.2173,240.4917,35.5704,115.0261,-0.023517,-0.00715072,0.0,0 STARLINK-3270,1 50199U 21125AV  22086.25001157 -.00715072  00000-0 -23517-1 0  9997,2 50199  53.2173 240.4917 0001848  35.5704 115.0261 15.33581513 18324,6843.274,93.898,466.404,463.874,0.0
